OBJECT_NAME,OBJECT_ID,EPOCH,MEAN_MOTION,ECCENTRICITY,INCLINATION,RA_OF_ASC_NODE,ARG_OF_PERICENTER,MEAN_ANOMALY,EPHEMERIS_TYPE,CLASSIFICATION_TYPE,NORAD_CAT_ID,ELEMENT_SET_NO,REV_AT_EPOCH,BSTAR,MEAN_MOTION_DOT,MEAN_MOTION_DDOT
STARLINK-3587,2022-022AS,2026-05-27T23:23:26.445696,15.08839417,.0001668,53.2053,3.1920,91.9025,268.2158,0,U,51892,999,23521,.5495324E-4,.587E-5,0
STARLINK-3579,2022-022AT,2026-05-28T06:58:52.793184,15.08963144,.00012421,53.2174,1.7756,88.0787,272.0347,0,U,51893,999,23532,.74955144E-3,.11701E-3,0
STARLINK-3595,2022-022AU,2026-05-28T07:04:28.939296,15.08820681,.00014041,53.2058,1.7561,99.6061,260.5089,0,U,51894,999,23532,.21447528E-3,.3125E-4,0
STARLINK-3594,2022-022AV,2026-05-28T06:53:52.814976,15.08835723,.00013817,53.2052,1.7854,95.0512,265.0638,0,U,51895,999,23526,-.15246516E-4,-.531E-5,0
STARLINK-3593,2022-022AW,2026-05-27T23:28:46.616448,15.08840871,.00013731,53.2041,3.3955,89.1128,271.0022,0,U,51896,999,23526,.15983008E-4,-.34E-6,0
STARLINK-3598,2022-022AX,2026-05-28T06:48:34.571808,15.08833867,.00013504,53.2043,1.8038,79.7289,280.3855,0,U,51897,999,23526,.22406237E-4,.69E-6,0
STARLINK-3597,2022-022AY,2026-05-28T05:07:53.741280,15.08825900,.00012546,53.2014,2.1190,76.7840,283.3292,0,U,51898,999,23530,-.2234435E-5,-.323E-5,0
2022-023A,2022-023A,2026-05-28T06:31:36.727104,15.18071672,.01044096,63.4861,338.0281,343.0884,16.6756,0,U,51946,999,23469,.1035835E-2,.24329E-3,0
2022-023B,2022-023B,2026-05-27T20:57:42.187680,15.18066907,.00983052,63.4851,338.7678,347.2380,12.6245,0,U,51947,999,23463,.66435509E-4,.1286E-4,0
2022-023C,2022-023C,2026-05-28T06:36:08.362656,15.18136266,.01010532,63.4949,338.8082,350.0970,9.8149,0,U,51948,999,23469,.94834873E-3,.22087E-3,0
2022-023D,2022-023D,2026-05-28T05:28:06.525120,15.18099161,.01225074,63.4564,339.5691,355.9482,4.0626,0,U,51949,999,23468,.11870181E-2,.29528E-3,0
2022-023E,2022-023E,2026-05-28T07:09:44.064288,13.56283819,.0158214,63.4633,5.4536,348.6818,11.0671,0,U,51950,999,21933,.1610982E-3,.3E-6,0
2022-023F,2022-023F,2026-05-28T05:59:27.004704,15.18134251,.01284806,63.4462,341.2623,343.4587,16.2351,0,U,51951,999,23468,.88749226E-3,.2246E-3,0
STARLINK-3700,2022-025A,2026-05-27T21:18:31.444416,15.31708286,.0001151,53.1612,5.2853,87.5876,272.5257,0,U,51956,999,23330,.35589E-4,.74E-5,0
STARLINK-3694,2022-025B,2026-05-28T01:54:21.890592,15.31708102,.00012702,53.1624,27.6111,88.9682,271.1465,0,U,51957,999,23299,.23633896E-4,.368E-5,0
STARLINK-3692,2022-025C,2026-05-27T21:05:04.967808,15.31705591,.0001356,53.1607,5.2377,88.9069,271.2087,0,U,51958,999,23330,-.16416E-4,-.875E-5,0
STARLINK-3704,2022-025D,2026-05-28T01:48:43.107552,15.31729953,.00013381,53.1607,28.1988,89.4719,270.6436,0,U,51959,999,23298,.2594067E-3,.77E-4,0
STARLINK-3691,2022-025E,2026-05-27T20:45:37.895616,15.31695671,.00016472,53.1623,28.4294,70.3495,289.7684,0,U,51960,999,23296,.20548822E-4,.272E-5,0
STARLINK-3697,2022-025G,2026-05-28T01:23:10.031136,15.31695846,.00013279,53.1606,15.1391,91.9520,268.1633,0,U,51962,999,23317,.3307423E-3,.9911E-4,0
STARLINK-3675,2022-025H,2026-05-28T00:06:17.028000,15.31708431,.00012389,53.1608,4.6517,81.0179,279.0963,0,U,51963,999,23332,.32768635E-4,.652E-5,0
STARLINK-3690,2022-025J,2026-05-27T20:21:09.064512,15.31712822,.00013486,53.1610,16.1036,83.6824,276.4331,0,U,51964,999,23314,.46659479E-4,.1083E-4,0
STARLINK-3696,2022-025K,2026-05-28T01:07:27.865920,15.31705215,.00014211,53.1607,28.1217,98.4929,261.6234,0,U,51965,999,23298,-.3293032E-4,-.1387E-4,0
STARLINK-3699,2022-025L,2026-05-28T08:00:03.000384,15.31710175,.00012634,53.1585,26.5457,89.8563,102.6390,0,U,51966,999,586,-.59291166E-3,-.18724E-3,0
STARLINK-3681,2022-025N,2026-05-28T00:49:35.906304,15.31709163,.00012937,53.1618,15.2369,97.7286,262.3862,0,U,51968,999,23317,.31931622E-4,.626E-5,0
STARLINK-3680,2022-025P,2026-05-27T22:01:49.709280,15.31696946,.0001178,53.1617,15.8220,99.5349,260.5786,0,U,51969,999,23314,-.15594E-4,-.849E-5,0
STARLINK-3677,2022-025Q,2026-05-28T01:08:21.770016,15.30191641,.00012003,53.1600,28.1057,90.1998,269.9140,0,U,51970,999,23298,.21235647E-4,.27E-5,0
STARLINK-3669,2022-025R,2026-05-27T22:21:59.862240,15.31698976,.0001553,53.1625,15.9161,93.3645,266.7534,0,U,51971,999,23315,-.11175E-4,-.712E-5,0
STARLINK-3671,2022-025S,2026-05-28T02:17:34.150560,15.29356769,.00014169,53.1576,27.7993,88.4975,271.6187,0,U,51972,999,23299,.19129442E-4,.196E-5,0
STARLINK-3679,2022-025T,2026-05-28T02:14:31.518240,15.31704716,.00013645,53.1618,27.6395,90.2696,269.8462,0,U,51973,999,23299,.23092995E-4,.352E-5,0
STARLINK-3672,2022-025U,2026-05-28T08:00:03.000384,15.31714579,.00012923,53.1582,26.7533,94.1738,123.8901,0,U,51974,999,577,-.63156711E-3,-.19921E-3,0
STARLINK-3674,2022-025V,2026-05-28T00:56:12.989472,15.31707419,.00012623,53.1614,14.7487,66.5932,293.5202,0,U,51975,999,23318,.45228932E-4,.1039E-4,0
STARLINK-3660,2022-025X,2026-05-28T00:57:33.357024,15.08844798,.00017928,53.2054,22.9070,85.4012,274.7185,0,U,51977,999,23331,-.10679038E-3,-.1988E-4,0
STARLINK-3649,2022-025AA,2026-05-28T02:07:45.541056,15.08811130,.00014524,53.2056,42.6757,77.1063,283.0091,0,U,51980,999,23304,-.1948344E-3,-.3385E-4,0
STARLINK-3635,2022-025AB,2026-05-27T23:18:08.247456,15.08841994,.00017626,53.2068,43.2077,69.6751,290.4430,0,U,51981,999,23302,.50092378E-4,.509E-5,0
STARLINK-3655,2022-025AD,2026-05-28T02:23:36.004128,15.08851256,.00015611,53.2047,42.6401,79.4688,280.6480,0,U,51983,999,23304,.85584371E-4,.1075E-4,0
STARLINK-3664,2022-025AE,2026-05-27T22:31:50.332800,15.08859001,.00013469,53.2062,43.4418,101.0810,259.0333,0,U,51984,999,23302,-.13496159E-3,-.2436E-4,0
STARLINK-3651,2022-025AF,2026-05-28T00:39:00.957024,15.08833759,.00018186,53.2058,42.9680,59.0087,301.1084,0,U,51985,999,23303,.39221818E-4,.336E-5,0
STARLINK-3645,2022-025AG,2026-05-28T02:34:10.932672,15.08839132,.00013392,53.2058,42.4458,75.7067,284.4074,0,U,51986,999,23305,.30566248E-4,.199E-5,0
STARLINK-3644,2022-025AH,2026-05-27T22:30:26.440992,15.08843528,.00019685,53.2068,43.3605,119.1939,240.9250,0,U,51987,999,23302,.54423868E-4,.578E-5,0
STARLINK-3640,2022-025AJ,2026-05-28T02:50:06.474336,15.08837830,.00011833,53.2043,42.5440,102.4849,257.6276,0,U,51988,999,23305,-.65461837E-4,-.1329E-4,0
STARLINK-3642,2022-025AK,2026-05-27T22:25:08.819040,15.08838193,.0001964,53.2051,43.3712,105.3497,254.7712,0,U,51989,999,23302,.30957E-4,.204E-5,0
STARLINK-3657,2022-025AL,2026-05-28T00:50:53.082240,15.08835075,.000222,53.2068,22.9186,73.2084,286.9151,0,U,51990,999,23331,.59855614E-4,.664E-5,0
STARLINK-3652,2022-025AM,2026-05-27T22:14:33.014400,15.08837678,.0001208,53.2052,43.4084,58.4974,301.6136,0,U,51991,999,23302,-.21626E-5,-.322E-5,0
STARLINK-3643,2022-025AN,2026-05-27T21:24:12.555072,15.08829883,.0001638,53.2055,23.5640,103.5675,256.5500,0,U,51992,999,23286,.38971E-3,.5918E-4,0
STARLINK-3648,2022-025AP,2026-05-27T21:58:39.059040,15.08839481,.000139,53.2069,43.4589,87.3223,272.7928,0,U,51993,999,23302,.22502E-5,-.252E-5,0
STARLINK-3647,2022-025AQ,2026-05-28T00:29:41.068608,15.08838443,.00016784,53.2045,22.9850,89.8307,270.2878,0,U,51994,999,23289,-.69833499E-4,-.1399E-4,0
STARLINK-3636,2022-025AR,2026-05-27T23:10:11.668512,15.08840805,.00015821,53.2050,23.2319,93.5674,266.5499,0,U,51995,999,23287,-.1180574E-5,-.307E-5,0
STARLINK-3538,2022-025AS,2026-05-27T22:49:00.097248,15.08833111,.00016426,53.2060,23.3017,63.8428,296.2733,0,U,51996,999,23288,.16833023E-4,-.2E-6,0
STARLINK-3589,2022-025AT,2026-05-28T00:40:16.526784,15.08846168,.00012751,53.2051,22.9524,96.2379,263.8758,0,U,51997,999,23288,-.37926919E-4,-.892E-5,0
STARLINK-3618,2022-025AU,2026-05-28T01:17:22.589952,15.08839367,.00017711,53.2058,22.8394,64.5061,295.6114,0,U,51998,999,23290,.17895332E-4,-.3E-7,0
STARLINK-3653,2022-025AW,2026-05-28T00:56:09.867840,15.08837081,.00013818,53.2050,22.8142,68.0289,292.0850,0,U,52000,999,23290,.21356587E-4,.52E-6,0
STARLINK-3659,2022-025AX,2026-05-28T01:13:27.101568,15.08836246,.00016289,53.2068,22.8602,106.4777,253.6394,0,U,52001,999,23290,.43011969E-4,.396E-5,0
STARLINK-3668,2022-025AY,2026-05-28T01:12:04.320864,15.08839892,.00013658,53.2048,22.8940,84.9128,275.2019,0,U,52002,999,23290,-.11557524E-3,-.2127E-4,0
YAOGAN-34 02,2022-027A,2026-05-28T07:52:31.434240,13.45459187,.00502299,63.3975,252.1268,353.2483,6.7861,0,U,52084,999,20624,.9396684E-5,-.85E-6,0
STARLINK-3712,2022-029C,2026-05-28T04:02:59.696736,15.08841537,.00016949,53.2066,92.3188,52.9395,307.1752,0,U,52090,999,23265,.6675952E-4,.775E-5,0
STARLINK-3716,2022-029E,2026-05-28T05:43:41.555424,15.08829987,.00011299,53.2059,92.0024,79.8190,280.2929,0,U,52092,999,23266,-.27311347E-4,-.722E-5,0
STARLINK-3673,2022-029F,2026-05-28T03:53:45.145248,15.08837667,.00024816,53.2066,92.3564,43.5921,316.5267,0,U,52093,999,23265,.17881453E-4,-.4E-7,0
STARLINK-3714,2022-029G,2026-05-28T05:33:03.943296,15.08831807,.00017582,53.2053,92.0403,53.1367,306.9786,0,U,52094,999,23266,.28357027E-4,.163E-5,0
STARLINK-3701,2022-029H,2026-05-28T05:17:10.952160,15.08864718,.00019544,53.2051,92.0871,89.2101,270.9115,0,U,52095,999,23266,.71105582E-3,.11054E-3,0
STARLINK-3717,2022-029J,2026-05-28T04:46:41.585952,15.08849659,.00014465,53.2067,82.1824,85.2293,274.8864,0,U,52096,999,23278,.11877988E-3,.1603E-4,0
STARLINK-3665,2022-029L,2026-05-28T05:22:28.020288,15.08834807,.00012566,53.2041,92.0733,71.8988,288.2141,0,U,52098,999,23266,.9766911E-5,-.132E-5,0
STARLINK-3702,2022-029N,2026-05-28T03:36:30.107808,15.08832146,.0001661,53.2060,92.4011,60.2134,299.9023,0,U,52100,999,23265,.15470173E-3,.2174E-4,0
STARLINK-3703,2022-029P,2026-05-28T05:27:47.529216,15.08845614,.00011767,53.2042,92.2507,90.8311,269.2816,0,U,52101,999,23265,-.1432523E-3,-.2567E-4,0
STARLINK-3709,2022-029Q,2026-05-28T05:14:33.726624,15.08843537,.00016836,53.2065,82.0962,60.7573,299.3587,0,U,52102,999,23279,.53696019E-4,.567E-5,0
STARLINK-3705,2022-029R,2026-05-28T04:36:06.285888,15.08833418,.00021139,53.2068,82.2178,64.5454,295.5756,0,U,52103,999,23278,.708117E-5,-.176E-5,0
